start=new Date('2021-11-08T00:00:00.000Z').valueOf();
sats=[{"ARG_OF_PERICENTER":"73.3515","EPHEMERIS_TYPE":"0","LAUNCH_DATE":"2020-10-06","CLASSIFICATION_TYPE":"U","REF_FRAME":"TEME","SEMIMAJOR_AXIS":"6925.387","DECAY_DATE":null,"MEAN_ELEMENT_THEORY":"SGP4","TLE_LINE1":"1 46554U 20070Y   21311.71612454  .00009595  00000-0  66236-3 0  9995","SITE":"AFETR","ECCENTRICITY":"0.00013290","TLE_LINE2":"2 46554  53.0535  67.8676 0001329  73.3515 286.7619 15.06387525 61127","PERIAPSIS":"546.331","MEAN_MOTION":"15.06387525","COUNTRY_CODE":"US","NORAD_CAT_ID":"46554","RA_OF_ASC_NODE":"67.8676","TIME_SYSTEM":"UTC","ELEMENT_SET_NO":"999","GP_ID":"189215546","FILE":"3207836","OBJECT_NAME":"STARLINK-1671","INCLINATION":"53.0535","EPOCH":"2021-11-07T17:11:13.160256","BSTAR":"0.00066236000000","CENTER_NAME":"EARTH","MEAN_MOTION_DDOT":"0.0000000000000","OBJECT_TYPE":"PAYLOAD","APOAPSIS":"548.172","MEAN_ANOMALY":"286.7619","REV_AT_EPOCH":"6112","PERIOD":"95.593","OBJECT_ID":"2020-070Y","RCS_SIZE":"LARGE","MEAN_MOTION_DOT":"0.00009595"},{"BSTAR":"0.00119340000000","EPOCH":"2021-11-07T16:08:53.625696","MEAN_MOTION_DDOT":"0.0000000000000","CENTER_NAME":"EARTH","OBJECT_TYPE":"PAYLOAD","MEAN_ANOMALY":"328.6133","APOAPSIS":"315.064","REV_AT_EPOCH":"6180","PERIOD":"90.804","OBJECT_ID":"2020-070Z","MEAN_MOTION_DOT":"0.00307727","RCS_SIZE":"LARGE","TLE_LINE2":"2 46555  53.0508  18.9987 0001607  31.4986 328.6133 15.85830871 61802","PERIAPSIS":"312.913","COUNTRY_CODE":"US","MEAN_MOTION":"15.85830871","RA_OF_ASC_NODE":"18.9987","NORAD_CAT_ID":"46555","GP_ID":"189215796","ELEMENT_SET_NO":"999","TIME_SYSTEM":"UTC","INCLINATION":"53.0508","FILE":"3207836","OBJECT_NAME":"STARLINK-1674","TLE_LINE1":"1 46555U 20070Z   21311.67284289  .00307727  00000-0  11934-2 0  9994","SITE":"AFETR","ECCENTRICITY":"0.00016070","ARG_OF_PERICENTER":"31.4986","EPHEMERIS_TYPE":"0","LAUNCH_DATE":"2020-10-06","CLASSIFICATION_TYPE":"U","REF_FRAME":"TEME","SEMIMAJOR_AXIS":"6692.123","DECAY_DATE":null,"MEAN_ELEMENT_THEORY":"SGP4"},{"SITE":"AFETR","TLE_LINE1":"1 46556U 20070AA  21311.84190614  .00000224  00000-0  33924-4 0  9999","ECCENTRICITY":"0.00012960","CLASSIFICATION_TYPE":"U","REF_FRAME":"TEME","ARG_OF_PERICENTER":"81.2869","EPHEMERIS_TYPE":"0","LAUNCH_DATE":"2020-10-06","MEAN_ELEMENT_THEORY":"SGP4","SEMIMAJOR_AXIS":"6925.382","DECAY_DATE":null,"OBJECT_TYPE":"PAYLOAD","APOAPSIS":"548.145","MEAN_ANOMALY":"278.8267","EPOCH":"2021-11-07T20:12:20.690496","BSTAR":"0.00003392400000","CENTER_NAME":"EARTH","MEAN_MOTION_DDOT":"0.0000000000000","OBJECT_ID":"2020-070AA","RCS_SIZE":"LARGE","MEAN_MOTION_DOT":"0.00000224","REV_AT_EPOCH":"6093","PERIOD":"95.593","PERIAPSIS":"546.350","MEAN_MOTION":"15.06388928","COUNTRY_CODE":"US","TLE_LINE2":"2 46556  53.0548  82.3040 0001296  81.2869 278.8267 15.06388928 60930","FILE":"3207836","OBJECT_NAME":"STARLINK-1676","INCLINATION":"53.0548","NORAD_CAT_ID":"46556","RA_OF_ASC_NODE":"82.3040","TIME_SYSTEM":"UTC","ELEMENT_SET_NO":"999","GP_ID":"189216547"},{"EPOCH":"2021-11-07T18:04:18.127776","BSTAR":"0.00044879000000","MEAN_MOTION_DDOT":"0.0000000000000","CENTER_NAME":"EARTH","OBJECT_TYPE":"PAYLOAD","APOAPSIS":"548.369","MEAN_ANOMALY":"283.6828","REV_AT_EPOCH":"6113","PERIOD":"95.593","OBJECT_ID":"2020-070AB","MEAN_MOTION_DOT":"0.00006406","RCS_SIZE":"LARGE","TLE_LINE2":"2 46557  53.0551  67.6988 0001578  76.4337 283.6828 15.06379728 61139","PERIAPSIS":"546.183","COUNTRY_CODE":"US","MEAN_MOTION":"15.06379728","RA_OF_ASC_NODE":"67.6988","NORAD_CAT_ID":"46557","ELEMENT_SET_NO":"999","GP_ID":"189216792","TIME_SYSTEM":"UTC","INCLINATION":"53.0551","OBJECT_NAME":"STARLINK-1679","FILE":"3207836","TLE_LINE1":"1 46557U 20070AB  21311.75298759  .00006406  00000-0  44879-3 0  9997","SITE":"AFETR","ECCENTRICITY":"0.00015780","EPHEMERIS_TYPE":"0","ARG_OF_PERICENTER":"76.4337","LAUNCH_DATE":"2020-10-06","CLASSIFICATION_TYPE":"U","REF_FRAME":"TEME","SEMIMAJOR_AXIS":"6925.411","DECAY_DATE":null,"MEAN_ELEMENT_THEORY":"SGP4"},{"TLE_LINE2":"2 46558  53.0542  67.3699 0001248  86.8329 273.2803 15.06395921 61115","PERIAPSIS":"546.362","COUNTRY_CODE":"US","MEAN_MOTION":"15.06395921","RA_OF_ASC_NODE":"67.3699","NORAD_CAT_ID":"46558","ELEMENT_SET_NO":"999","GP_ID":"189215046","TIME_SYSTEM":"UTC","INCLINATION":"53.0542","FILE":"3207836","OBJECT_NAME":"STARLINK-1680","EPOCH":"2021-11-07T19:50:26.763360","BSTAR":"-0.00002605700000","CENTER_NAME":"EARTH","MEAN_MOTION_DDOT":"0.0000000000000","OBJECT_TYPE":"PAYLOAD","APOAPSIS":"548.090","MEAN_ANOMALY":"273.2803","REV_AT_EPOCH":"6111","PERIOD":"95.592","OBJECT_ID":"2020-070AC","MEAN_MOTION_DOT":"-0.00000669","RCS_SIZE":"LARGE","EPHEMERIS_TYPE":"0","ARG_OF_PERICENTER":"86.8329","LAUNCH_DATE":"2020-10-06","CLASSIFICATION_TYPE":"U","REF_FRAME":"TEME","SEMIMAJOR_AXIS":"6925.361","DECAY_DATE":null,"MEAN_ELEMENT_THEORY":"SGP4","TLE_LINE1":"1 46558U 20070AC  21311.82669865 -.00000669  00000-0 -26057-4 0  9992","SITE":"AFETR","ECCENTRICITY":"0.00012480"},{"DECAY_DATE":null,"SEMIMAJOR_AXIS":"6925.398","MEAN_ELEMENT_THEORY":"SGP4","LAUNCH_DATE":"2020-10-06","EPHEMERIS_TYPE":"0","ARG_OF_PERICENTER":"82.4881","REF_FRAME":"TEME","CLASSIFICATION_TYPE":"U","ECCENTRICITY":"0.00012820","TLE_LINE1":"1 46559U 20070AD  21311.81519222  .00002189  00000-0  16585-3 0  9994","SITE":"AFETR","GP_ID":"189215296","ELEMENT_SET_NO":"999","TIME_SYSTEM":"UTC","RA_OF_ASC_NODE":"52.4169","NORAD_CAT_ID":"46559","INCLINATION":"53.0548","FILE":"3207836","OBJECT_NAME":"STARLINK-1681","TLE_LINE2":"2 46559  53.0548  52.4169 0001282  82.4881 277.6253 15.06383967 61341","COUNTRY_CODE":"US","MEAN_MOTION":"15.06383967","PERIAPSIS":"546.375","PERIOD":"95.593","REV_AT_EPOCH":"6134","MEAN_MOTION_DOT":"0.00002189","RCS_SIZE":"LARGE","OBJECT_ID":"2020-070AD","MEAN_MOTION_DDOT":"0.0000000000000","CENTER_NAME":"EARTH","EPOCH":"2021-11-07T19:33:52.607808","BSTAR":"0.00016585000000","OBJECT_TYPE":"PAYLOAD","MEAN_ANOMALY":"277.6253","APOAPSIS":"548.151"},{"SITE":"AFETR","TLE_LINE1":"1 46560U 20070AE  21311.70875119 -.00001111  00000-0 -55723-4 0  9998","ECCENTRICITY":"0.00012520","CLASSIFICATION_TYPE":"U","REF_FRAME":"TEME","EPHEMERIS_TYPE":"0","ARG_OF_PERICENTER":"88.4809","LAUNCH_DATE":"2020-10-06","MEAN_ELEMENT_THEORY":"SGP4","SEMIMAJOR_AXIS":"6925.389","DECAY_DATE":null,"APOAPSIS":"548.121","OBJECT_TYPE":"PAYLOAD","MEAN_ANOMALY":"271.6323","EPOCH":"2021-11-07T17:00:36.102816","BSTAR":"-0.00005572300000","CENTER_NAME":"EARTH","MEAN_MOTION_DDOT":"0.0000000000000","OBJECT_ID":"2020-070AE","MEAN_MOTION_DOT":"-0.00001111","RCS_SIZE":"LARGE","REV_AT_EPOCH":"6112","PERIOD":"95.593","PERIAPSIS":"546.387","COUNTRY_CODE":"US","MEAN_MOTION":"15.06386861","TLE_LINE2":"2 46560  53.0556  67.9061 0001252  88.4809 271.6323 15.06386861 61121","INCLINATION":"53.0556","OBJECT_NAME":"STARLINK-1706","FILE":"3207836","RA_OF_ASC_NODE":"67.9061","NORAD_CAT_ID":"46560","GP_ID":"189216047","ELEMENT_SET_NO":"999","TIME_SYSTEM":"UTC"},{"REV_AT_EPOCH":"6113","PERIOD":"95.593","OBJECT_ID":"2020-070AF","RCS_SIZE":"LARGE","MEAN_MOTION_DOT":"-0.00000307","BSTAR":"-0.00000175550000","EPOCH":"2021-11-07T18:57:22.646016","MEAN_MOTION_DDOT":"0.0000000000000","CENTER_NAME":"EARTH","OBJECT_TYPE":"PAYLOAD","MEAN_ANOMALY":"285.8828","APOAPSIS":"548.118","NORAD_CAT_ID":"46561","RA_OF_ASC_NODE":"67.5390","TIME_SYSTEM":"UTC","GP_ID":"189216292","ELEMENT_SET_NO":"999","FILE":"3207836","OBJECT_NAME":"STARLINK-1709","INCLINATION":"53.0551","TLE_LINE2":"2 46561  53.0551  67.5390 0001250  74.2298 285.8828 15.06387224 61133","PERIAPSIS":"546.387","MEAN_MOTION":"15.06387224","COUNTRY_CODE":"US","ECCENTRICITY":"0.00012500","TLE_LINE1":"1 46561U 20070AF  21311.78984544 -.00000307  00000-0 -17555-5 0  9998","SITE":"AFETR","SEMIMAJOR_AXIS":"6925.388","DECAY_DATE":null,"MEAN_ELEMENT_THEORY":"SGP4","EPHEMERIS_TYPE":"0","ARG_OF_PERICENTER":"74.2298","LAUNCH_DATE":"2020-10-06","CLASSIFICATION_TYPE":"U","REF_FRAME":"TEME"},{"OBJECT_NAME":"STARLINK-1714","FILE":"3207836","INCLINATION":"53.0554","TIME_SYSTEM":"UTC","GP_ID":"189215547","ELEMENT_SET_NO":"999","NORAD_CAT_ID":"46562","RA_OF_ASC_NODE":"62.5249","MEAN_MOTION":"15.06381106","COUNTRY_CODE":"US","PERIAPSIS":"546.243","TLE_LINE2":"2 46562  53.0554  62.5249 0001485  67.7527 292.3620 15.06381106 61201","RCS_SIZE":"LARGE","MEAN_MOTION_DOT":"0.00014863","OBJECT_ID":"2020-070AG","PERIOD":"95.593","REV_AT_EPOCH":"6120","OBJECT_TYPE":"PAYLOAD","APOAPSIS":"548.300","MEAN_ANOMALY":"292.3620","MEAN_MOTION_DDOT":"0.0000000000000","CENTER_NAME":"EARTH","EPOCH":"2021-11-07T19:00:42.581664","BSTAR":"0.00101510000000","MEAN_ELEMENT_THEORY":"SGP4","DECAY_DATE":null,"SEMIMAJOR_AXIS":"6925.406","REF_FRAME":"TEME","CLASSIFICATION_TYPE":"U","LAUNCH_DATE":"2020-10-06","EPHEMERIS_TYPE":"0","ARG_OF_PERICENTER":"67.7527","ECCENTRICITY":"0.00014850","SITE":"AFETR","TLE_LINE1":"1 46562U 20070AG  21311.79215951  .00014863  00000-0  10151-2 0  9991"},{"TLE_LINE1":"1 46563U 20070AH  21311.77373320  .00001661  00000-0  13045-3 0  9993","SITE":"AFETR","ECCENTRICITY":"0.00012360","LAUNCH_DATE":"2020-10-06","EPHEMERIS_TYPE":"0","ARG_OF_PERICENTER":"85.2996","REF_FRAME":"TEME","CLASSIFICATION_TYPE":"U","DECAY_DATE":null,"SEMIMAJOR_AXIS":"6925.416","MEAN_ELEMENT_THEORY":"SGP4","MEAN_MOTION_DDOT":"0.0000000000000","CENTER_NAME":"EARTH","BSTAR":"0.00013045000000","EPOCH":"2021-11-07T18:34:10.548480","OBJECT_TYPE":"PAYLOAD","MEAN_ANOMALY":"274.8134","APOAPSIS":"548.137","PERIOD":"95.594","REV_AT_EPOCH":"6120","MEAN_MOTION_DOT":"0.00001661","RCS_SIZE":"LARGE","OBJECT_ID":"2020-070AH","TLE_LINE2":"2 46563  53.0539  62.5940 0001236  85.2996 274.8134 15.06377839 61205","COUNTRY_CODE":"US","MEAN_MOTION":"15.06377839","PERIAPSIS":"546.425","GP_ID":"189215797","ELEMENT_SET_NO":"999","TIME_SYSTEM":"UTC","RA_OF_ASC_NODE":"62.5940","NORAD_CAT_ID":"46563","INCLINATION":"53.0539","FILE":"3207836","OBJECT_NAME":"STARLINK-1730"}];
